NORAD_CAT_ID,OBJECT_NAME,OBJECT_TYPE,EPOCH,MEAN_MOTION,ECCENTRICITY,INCLINATION,RA_OF_ASC_NODE,ARG_OF_PERICENTER,MEAN_ANOMALY,BSTAR,MEAN_MOTION_DOT,MEAN_MOTION_DDOT,TLE_LINE0,TLE_LINE1,TLE_LINE2,SEMIMAJOR_AXIS,PERIOD,APOGEE,PERIGEE,DECAYED
53012.0,STARLINK-4271,PAYLOAD,2024-05-24 09:29:49,15.0884474,0.0001417,53.2166,151.359,90.6844,269.431,7.3422e-05,8.81e-06,0.0,0 STARLINK-4271,1 53012U 22076AC  24145.39571510  .00000881  00000-0  73422-4 0  9994,2 53012  53.2166 151.3590 0001417  90.6844 269.4310 15.08844740104544,6917.866,95.437,540.711,538.751,0.0
53012.0,STARLINK-4271,PAYLOAD,2024-05-25 04:34:28,15.08832606,0.0001485,53.2163,147.7923,78.712,281.4039,2.3849e-05,9.2e-07,0.0,0 STARLINK-4271,1 53012U 22076AC  24146.19060630  .00000092  00000-0  23849-4 0  9991,2 53012  53.2163 147.7923 0001485  78.7120 281.4039 15.08832606104662,6917.903,95.438,540.795,538.741,0.0
53012.0,STARLINK-4271,PAYLOAD,2024-05-25 07:45:14,15.08833048,0.0001564,53.2168,147.1978,78.5909,281.5258,2.6877e-05,1.4e-06,0.0,0 STARLINK-4271,1 53012U 22076AC  24146.32308648  .00000140  00000-0  26877-4 0  9998,2 53012  53.2168 147.1978 0001564  78.5909 281.5258 15.08833048104218,6917.902,95.438,540.849,538.685,0.0
53012.0,STARLINK-4271,PAYLOAD,2024-05-26 04:25:14,15.08853915,0.0001391,53.2166,143.3322,108.0086,252.1058,0.0001134,1.518e-05,0.0,0 STARLINK-4271,1 53012U 22076AC  24147.18419145  .00001518  00000-0  11340-3 0  9996,2 53012  53.2166 143.3322 0001391 108.0086 252.1058 15.08853915104813,6917.838,95.437,540.665,538.741,0.0
53012.0,STARLINK-4271,PAYLOAD,2024-05-26 09:11:24,15.08840469,0.0001438,53.2165,142.4399,93.3284,266.7872,4.9328e-05,4.97e-06,0.0,0 STARLINK-4271,1 53012U 22076AC  24147.38292166  .00000497  00000-0  49328-4 0  9993,2 53012  53.2165 142.4399 0001438  93.3284 266.7872 15.08840469104842,6917.879,95.438,540.739,538.749,0.0
53012.0,STARLINK-4271,PAYLOAD,2024-05-26 17:08:20,15.08841292,0.0001414,53.2166,140.9529,100.3443,259.7708,2.9566e-05,1.83e-06,0.0,0 STARLINK-4271,1 53012U 22076AC  24147.71412117  .00000183  00000-0  29566-4 0  9994,2 53012  53.2166 140.9529 0001414 100.3443 259.7708 15.08841292104420,6917.876,95.437,540.72,538.763,0.0
53012.0,STARLINK-4271,PAYLOAD,2024-05-27 05:51:25,15.08839576,0.0001428,53.2167,138.5741,93.5506,266.5649,9.9002e-05,1.288e-05,0.0,0 STARLINK-4271,1 53012U 22076AC  24148.24404153  .00001288  00000-0  99002-4 0  9993,2 53012  53.2167 138.5741 0001428  93.5506 266.5649 15.08839576104509,6917.882,95.438,540.735,538.759,0.0
53012.0,STARLINK-4271,PAYLOAD,2024-05-28 05:42:12,15.0884236,0.0001434,53.2167,134.1138,93.6835,266.4321,4.8755e-05,4.88e-06,0.0,0 STARLINK-4271,1 53012U 22076AC  24149.23764053  .00000488  00000-0  48755-4 0  9991,2 53012  53.2167 134.1138 0001434  93.6835 266.4321 15.08842360105124,6917.873,95.437,540.73,538.746,0.0
53012.0,STARLINK-4271,PAYLOAD,2024-05-29 03:57:38,15.08819284,0.0001531,53.2175,129.9533,87.1205,272.9962,-0.00012256,-2.237e-05,0.0,0 STARLINK-4271,1 53012U 22076AC  24150.16502952 -.00002237  00000-0 -12256-3 0  9995,2 53012  53.2175 129.9533 0001531  87.1205 272.9962 15.08819284105268,6917.944,95.439,540.868,538.75,0.0
53012.0,STARLINK-4271,PAYLOAD,2024-05-29 08:43:47,15.08822775,0.0001663,53.2172,129.0565,105.6773,254.4403,-7.9914e-05,-1.559e-05,0.0,0 STARLINK-4271,1 53012U 22076AC  24150.36374681 -.00001559  00000-0 -79914-4 0  9994,2 53012  53.2172 129.0565 0001663 105.6773 254.4403 15.08822775104828,6917.933,95.439,540.948,538.648,0.0
53012.0,STARLINK-4271,PAYLOAD,2024-05-29 23:02:15,15.08838121,0.0001438,53.2178,126.3838,96.3182,263.7974,5.4327e-05,5.77e-06,0.0,0 STARLINK-4271,1 53012U 22076AC  24150.95989737  .00000577  00000-0  54327-4 0  9991,2 53012  53.2178 126.3838 0001438  96.3182 263.7974 15.08838121104915,6917.886,95.438,540.746,538.756,0.0
53012.0,STARLINK-4271,PAYLOAD,2024-05-30 05:23:47,15.08850947,0.0002512,53.2174,125.1938,113.1863,246.9394,-4.851e-05,-1.061e-05,0.0,0 STARLINK-4271,1 53012U 22076AC  24151.22485304 -.00001061  00000-0 -48510-4 0  9991,2 53012  53.2174 125.1938 0002512 113.1863 246.9394 15.08850947105423,6917.847,95.437,541.45,537.974,0.0
53012.0,STARLINK-4271,PAYLOAD,2024-05-31 03:39:10,15.0885233,0.000146,53.2174,121.0322,100.2876,259.828,0.00025635,3.796e-05,0.0,0 STARLINK-4271,1 53012U 22076AC  24152.15221058  .00003796  00000-0  25635-3 0  9995,2 53012  53.2174 121.0322 0001460 100.2876 259.8280 15.08852330105567,6917.843,95.437,540.718,538.698,0.0
53012.0,STARLINK-4271,PAYLOAD,2024-05-31 06:49:56,15.08857272,0.0001465,53.2174,120.4374,96.9062,263.2097,0.00030203,4.524e-05,0.0,0 STARLINK-4271,1 53012U 22076AC  24152.28468700  .00004524  00000-0  30203-3 0  9993,2 53012  53.2174 120.4374 0001465  96.9062 263.2097 15.08857272105116,6917.828,95.436,540.706,538.679,0.0
53012.0,STARLINK-4271,PAYLOAD,2024-05-31 06:49:57,15.08860817,0.0001519,53.2168,120.4376,91.5561,268.5606,0.00037007,5.61e-05,0.0,0 STARLINK-4271,1 53012U 22076AC  24152.28468955  .00005610  00000-0  37007-3 0  9991,2 53012  53.2168 120.4376 0001519  91.5561 268.5606 15.08860817105119,6917.817,95.436,540.733,538.631,0.0
53012.0,STARLINK-4271,PAYLOAD,2024-06-01 05:05:21,15.08844763,0.0001649,53.2178,116.2729,83.9526,276.1654,-6.5209e-06,-3.92e-06,0.0,0 STARLINK-4271,1 53012U 22076AC  24153.21205149 -.00000392  00000-0 -65209-5 0  9990,2 53012  53.2178 116.2729 0001649  83.9526 276.1654 15.08844763105722,6917.866,95.437,540.872,538.59,0.0
53012.0,STARLINK-4271,PAYLOAD,2024-06-01 14:37:40,15.08846279,0.000137,53.2173,114.4891,90.7336,269.3813,1.6586e-05,-2.4e-07,0.0,0 STARLINK-4271,1 53012U 22076AC  24153.60949298 -.00000024  00000-0  16586-4 0  9997,2 53012  53.2173 114.4891 0001370  90.7336 269.3813 15.08846279105313,6917.861,95.437,540.674,538.778,0.0
53012.0,STARLINK-4271,PAYLOAD,2024-06-02 06:31:31,15.08850976,0.0001453,53.218,111.5153,89.2608,270.8551,-2.7109e-05,-7.2e-06,0.0,0 STARLINK-4271,1 53012U 22076AC  24154.27188860 -.00000720  00000-0 -27109-4 0  9998,2 53012  53.2180 111.5153 0001453  89.2608 270.8551 15.08850976105884,6917.847,95.437,540.717,538.707,0.0
53012.0,STARLINK-4271,PAYLOAD,2024-06-02 14:28:26,15.08851807,0.0001438,53.2182,110.0259,86.4013,273.7144,-0.00013718,-2.471e-05,0.0,0 STARLINK-4271,1 53012U 22076AC  24154.60308837 -.00002471  00000-0 -13718-3 0  9998,2 53012  53.2182 110.0259 0001438  86.4013 273.7144 15.08851807105467,6917.844,95.437,540.704,538.715,0.0
53012.0,STARLINK-4271,PAYLOAD,2024-06-03 03:11:32,15.08828919,0.0001307,53.2175,107.6474,92.2176,267.8966,0.00025797,3.819e-05,0.0,0 STARLINK-4271,1 53012U 22076AC  24155.13301653  .00003819  00000-0  25797-3 0  9991,2 53012  53.2175 107.6474 0001307  92.2176 267.8966 15.08828919106016,6917.914,95.438,540.683,538.875,0.0
53012.0,STARLINK-4271,PAYLOAD,2024-06-03 06:22:18,15.0885022,0.0001425,53.2179,107.0523,95.016,265.0994,1.7885e-05,-3e-08,0.0,0 STARLINK-4271,1 53012U 22076AC  24155.26548749 -.00000003  00000-0  17885-4 0  9997,2 53012  53.2179 107.0523 0001425  95.0160 265.0994 15.08850220106037,6917.849,95.437,540.7,538.728,0.0
53012.0,STARLINK-4271,PAYLOAD,2024-06-03 14:19:13,15.08849193,0.0001391,53.2181,105.5663,94.8257,265.2894,8.7545e-05,1.106e-05,0.0,0 STARLINK-4271,1 53012U 22076AC  24155.59668612  .00001106  00000-0  87545-4 0  9999,2 53012  53.2181 105.5663 0001391  94.8257 265.2894 15.08849193105615,6917.852,95.437,540.68,538.755,0.0
53012.0,STARLINK-4271,PAYLOAD,2024-06-03 20:40:46,15.08838489,0.0001442,53.218,104.3776,94.2714,265.8443,0.00020857,3.033e-05,0.0,0 STARLINK-4271,1 53012U 22076AC  24155.86165126  .00003033  00000-0  20857-3 0  9994,2 53012  53.2180 104.3776 0001442  94.2714 265.8443 15.08838489105651,6917.885,95.438,540.748,538.752,0.0
53012.0,STARLINK-4271,PAYLOAD,2024-06-04 06:13:04,15.08854561,0.0001446,53.2177,102.5912,97.425,262.6907,0.00026214,3.888e-05,0.0,0 STARLINK-4271,1 53012U 22076AC  24156.25908411  .00003888  00000-0  26214-3 0  9991,2 53012  53.2177 102.5912 0001446  97.4250 262.6907 15.08854561105719,6917.836,95.437,540.701,538.701,0.0
53012.0,STARLINK-4271,PAYLOAD,2024-06-05 02:53:06,15.08844862,0.0001527,53.2178,98.7273,99.426,260.6905,0.00010335,1.357e-05,0.0,0 STARLINK-4271,1 53012U 22076AC  24157.12020912  .00001357  00000-0  10335-3 0  9995,2 53012  53.2178  98.7273 0001527  99.4260 260.6905 15.08844862106315,6917.866,95.437,540.787,538.674,0.0
53012.0,STARLINK-4271,PAYLOAD,2024-06-05 06:03:52,15.08846372,0.0001415,53.2174,98.1318,89.282,270.8335,0.00011081,1.476e-05,0.0,0 STARLINK-4271,1 53012U 22076AC  24157.25268798  .00001476  00000-0  11081-3 0  9996,2 53012  53.2174  98.1318 0001415  89.2820 270.8335 15.08846372105867,6917.861,95.437,540.705,538.747,0.0
53012.0,STARLINK-4271,PAYLOAD,2024-06-05 20:22:20,15.08837564,0.0001487,53.2183,95.4561,95.9429,264.1732,-3.9423e-05,-9.15e-06,0.0,0 STARLINK-4271,1 53012U 22076AC  24157.84885208 -.00000915  00000-0 -39423-4 0  9992,2 53012  53.2183  95.4561 0001487  95.9429 264.1732 15.08837564106428,6917.888,95.438,540.782,538.724,0.0
53012.0,STARLINK-4271,PAYLOAD,2024-06-06 02:43:53,15.08846588,0.0001467,53.2181,94.2673,93.8502,266.2658,0.00019116,2.756e-05,0.0,0 STARLINK-4271,1 53012U 22076AC  24158.11380814  .00002756  00000-0  19116-3 0  9995,2 53012  53.2181  94.2673 0001467  93.8502 266.2658 15.08846588106464,6917.86,95.437,540.74,538.71,0.0
53012.0,STARLINK-4271,PAYLOAD,2024-06-06 12:16:11,15.08846694,0.0001288,53.2171,92.4851,94.2785,265.8354,0.00022775,3.339e-05,0.0,0 STARLINK-4271,1 53012U 22076AC  24158.51124818  .00003339  00000-0  22775-3 0  9992,2 53012  53.2171  92.4851 0001288  94.2785 265.8354 15.08846694106051,6917.86,95.437,540.616,538.834,0.0
53012.0,STARLINK-4271,PAYLOAD,2024-06-06 20:13:07,15.08839078,0.0001899,53.2178,90.9967,93.2429,266.8781,9.2786e-05,1.189e-05,0.0,0 STARLINK-4271,1 53012U 22076AC  24158.84245317  .00001189  00000-0  92786-4 0  9997,2 53012  53.2178  90.9967 0001899  93.2429 266.8781 15.08839078106571,6917.883,95.438,541.062,538.435,0.0
